SL-3 R/B                
1 13403U 82079B   26032.04243496  .00005188  00000+0  20974-3 0  9998
2 13403  81.1437 236.3367 0024239 291.4167  68.4480 15.24271984372114
SL-14 R/B               
1 13553U 82092B   26031.90076962  .00000642  00000+0  69242-4 0  9997
2 13553  82.5693 175.7984 0021712  65.2201  33.3334 14.86622004323462
SL-3 R/B                
1 13819U 83010B   26031.53684771  .00013004  00000+0  27308-3 0  9997
2 13819  81.1013  47.7558 0017283 170.9006 189.2555 15.45054491352203
SL-3 R/B                
1 14208U 83075B   26032.05587015  .00010786  00000+0  29365-3 0  9991
2 14208  97.6117  35.2806 0022277   6.5232 353.6298 15.37443880324525
COSMOS 1536             
1 14699U 84013A   26031.80924831  .00005974  00000+0  24963-3 0  9993
2 14699  82.5476 144.4861 0015430  55.8945 304.3754 15.23311780267002
SL-14 R/B               
1 14820U 84027B   26032.12846830  .00000494  00000+0  53668-4 0  9999
2 14820  82.5412 279.3089 0019523  94.1292 266.2156 14.85939135242200
SL-8 R/B                
1 15483U 85006B   26032.11874007  .00000283  00000+0  10266-3 0  9991
2 15483  74.0476 328.4398 0019683 252.9732 117.9224 14.37762981148776
SL-12 R/B(2)            
1 15772U 85042D   26031.85338943  .00000185  00000+0  10465-3 0  9998
2 15772  71.1081 165.5503 0035415 186.6904 339.4445 14.21970798109155
SL-14 R/B               
1 15945U 85069B   26032.32627681  .00000536  00000+0  57935-4 0  9996
2 15945  82.5240  59.1355 0017666 316.5314  43.4509 14.86388908167435
SL-16 R/B               
1 16182U 85097B   26032.28982216  .00000267  00000+0  15787-3 0  9993
2 16182  71.0011 217.1820 0009279 302.5612 230.1164 14.16594043 82078
SL-14 R/B               
1 16496U 86006B   26031.97636148  .00000863  00000+0  88868-4 0  9990
2 16496  82.5279 294.2904 0077595  35.3707 325.2620 14.86759943143755
COSMOS 1743             
1 16719U 86034A   26031.94904399  .00030313  00000+0  43651-3 0  9995
2 16719  82.5348 112.3068 0005388  73.8096 286.3751 15.55861679174539
