CCSDS_OMM_VERS = 2.0
CREATION_DATE  = 
ORIGINATOR     = 

OBJECT_NAME    = SL-3 R/B
OBJECT_ID      = 1982-079B
CENTER_NAME    = EARTH
REF_FRAME      = TEME
TIME_SYSTEM    = UTC
MEAN_ELEMENT_THEORY = SGP/SGP4

EPOCH          = 2026-02-01T01:01:06.380544
MEAN_MOTION    = 15.24271984
ECCENTRICITY   = .00242398
INCLINATION    = 81.1437
RA_OF_ASC_NODE = 236.3367
ARG_OF_PERICENTER = 291.4167
MEAN_ANOMALY   = 68.4480

EPHEMERIS_TYPE = 0
CLASSIFICATION_TYPE = U
NORAD_CAT_ID   = 13403
ELEMENT_SET_NO = 999
REV_AT_EPOCH   = 37211
BSTAR          = .20974263E-3
MEAN_MOTION_DOT = .5188E-4
MEAN_MOTION_DDOT = 0

CCSDS_OMM_VERS = 2.0
CREATION_DATE  = 
ORIGINATOR     = 

OBJECT_NAME    = SL-14 R/B
OBJECT_ID      = 1982-092B
CENTER_NAME    = EARTH
REF_FRAME      = TEME
TIME_SYSTEM    = UTC
MEAN_ELEMENT_THEORY = SGP/SGP4

EPOCH          = 2026-01-31T21:37:06.495168
MEAN_MOTION    = 14.86622004
ECCENTRICITY   = .00217126
INCLINATION    = 82.5693
RA_OF_ASC_NODE = 175.7984
ARG_OF_PERICENTER = 65.2201
MEAN_ANOMALY   = 33.3334

EPHEMERIS_TYPE = 0
CLASSIFICATION_TYPE = U
NORAD_CAT_ID   = 13553
ELEMENT_SET_NO = 999
REV_AT_EPOCH   = 32346
BSTAR          = .69242204E-4
MEAN_MOTION_DOT = .642E-5
MEAN_MOTION_DDOT = 0

CCSDS_OMM_VERS = 2.0
CREATION_DATE  = 
ORIGINATOR     = 

OBJECT_NAME    = SL-3 R/B
OBJECT_ID      = 1983-010B
CENTER_NAME    = EARTH
REF_FRAME      = TEME
TIME_SYSTEM    = UTC
MEAN_ELEMENT_THEORY = SGP/SGP4

EPOCH          = 2026-01-31T12:53:03.642144
MEAN_MOTION    = 15.45054491
ECCENTRICITY   = .00172838
INCLINATION    = 81.1013
RA_OF_ASC_NODE = 47.7558
ARG_OF_PERICENTER = 170.9006
MEAN_ANOMALY   = 189.2555

EPHEMERIS_TYPE = 0
CLASSIFICATION_TYPE = U
NORAD_CAT_ID   = 13819
ELEMENT_SET_NO = 999
REV_AT_EPOCH   = 35220
BSTAR          = .27307541E-3
MEAN_MOTION_DOT = .13004E-3
MEAN_MOTION_DDOT = 0

CCSDS_OMM_VERS = 2.0
CREATION_DATE  = 
ORIGINATOR     = 

OBJECT_NAME    = SL-3 R/B
OBJECT_ID      = 1983-075B
CENTER_NAME    = EARTH
REF_FRAME      = TEME
TIME_SYSTEM    = UTC
MEAN_ELEMENT_THEORY = SGP/SGP4

EPOCH          = 2026-02-01T01:20:27.180960
MEAN_MOTION    = 15.37443880
ECCENTRICITY   = .00222773
INCLINATION    = 97.6117
RA_OF_ASC_NODE = 35.2806
ARG_OF_PERICENTER = 6.5232
MEAN_ANOMALY   = 353.6298

EPHEMERIS_TYPE = 0
CLASSIFICATION_TYPE = U
NORAD_CAT_ID   = 14208
ELEMENT_SET_NO = 999
REV_AT_EPOCH   = 32452
BSTAR          = .2936478E-3
MEAN_MOTION_DOT = .10786E-3
MEAN_MOTION_DDOT = 0

CCSDS_OMM_VERS = 2.0
CREATION_DATE  = 
ORIGINATOR     = 

OBJECT_NAME    = COSMOS 1536
OBJECT_ID      = 1984-013A
CENTER_NAME    = EARTH
REF_FRAME      = TEME
TIME_SYSTEM    = UTC
MEAN_ELEMENT_THEORY = SGP/SGP4

EPOCH          = 2026-01-31T19:25:19.053984
MEAN_MOTION    = 15.23311780
ECCENTRICITY   = .00154305
INCLINATION    = 82.5476
RA_OF_ASC_NODE = 144.4861
ARG_OF_PERICENTER = 55.8945
MEAN_ANOMALY   = 304.3754

EPHEMERIS_TYPE = 0
CLASSIFICATION_TYPE = U
NORAD_CAT_ID   = 14699
ELEMENT_SET_NO = 999
REV_AT_EPOCH   = 26700
BSTAR          = .24962741E-3
MEAN_MOTION_DOT = .5974E-4
MEAN_MOTION_DDOT = 0

CCSDS_OMM_VERS = 2.0
CREATION_DATE  = 
ORIGINATOR     = 

OBJECT_NAME    = SL-14 R/B
OBJECT_ID      = 1984-027B
CENTER_NAME    = EARTH
REF_FRAME      = TEME
TIME_SYSTEM    = UTC
MEAN_ELEMENT_THEORY = SGP/SGP4

EPOCH          = 2026-02-01T03:04:59.661120
MEAN_MOTION    = 14.85939135
ECCENTRICITY   = .00195233
INCLINATION    = 82.5412
RA_OF_ASC_NODE = 279.3089
ARG_OF_PERICENTER = 94.1292
MEAN_ANOMALY   = 266.2156

EPHEMERIS_TYPE = 0
CLASSIFICATION_TYPE = U
NORAD_CAT_ID   = 14820
ELEMENT_SET_NO = 999
REV_AT_EPOCH   = 24220
BSTAR          = .53668261E-4
MEAN_MOTION_DOT = .494E-5
MEAN_MOTION_DDOT = 0

CCSDS_OMM_VERS = 2.0
CREATION_DATE  = 
ORIGINATOR     = 

OBJECT_NAME    = SL-8 R/B
OBJECT_ID      = 1985-006B
CENTER_NAME    = EARTH
REF_FRAME      = TEME
TIME_SYSTEM    = UTC
MEAN_ELEMENT_THEORY = SGP/SGP4

EPOCH          = 2026-02-01T02:50:59.142048
MEAN_MOTION    = 14.37762981
ECCENTRICITY   = .0019683
INCLINATION    = 74.0476
RA_OF_ASC_NODE = 328.4398
ARG_OF_PERICENTER = 252.9732
MEAN_ANOMALY   = 117.9224

EPHEMERIS_TYPE = 0
CLASSIFICATION_TYPE = U
NORAD_CAT_ID   = 15483
ELEMENT_SET_NO = 999
REV_AT_EPOCH   = 14877
BSTAR          = .10265717E-3
MEAN_MOTION_DOT = .283E-5
MEAN_MOTION_DDOT = 0

CCSDS_OMM_VERS = 2.0
CREATION_DATE  = 
ORIGINATOR     = 

OBJECT_NAME    = SL-12 R/B(2)
OBJECT_ID      = 1985-042D
CENTER_NAME    = EARTH
REF_FRAME      = TEME
TIME_SYSTEM    = UTC
MEAN_ELEMENT_THEORY = SGP/SGP4

EPOCH          = 2026-01-31T20:28:52.846752
MEAN_MOTION    = 14.21970798
ECCENTRICITY   = .00354158
INCLINATION    = 71.1081
RA_OF_ASC_NODE = 165.5503
ARG_OF_PERICENTER = 186.6904
MEAN_ANOMALY   = 339.4445

EPHEMERIS_TYPE = 0
CLASSIFICATION_TYPE = U
NORAD_CAT_ID   = 15772
ELEMENT_SET_NO = 999
REV_AT_EPOCH   = 10915
BSTAR          = .10464824E-3
MEAN_MOTION_DOT = .185E-5
MEAN_MOTION_DDOT = 0

CCSDS_OMM_VERS = 2.0
CREATION_DATE  = 
ORIGINATOR     = 

OBJECT_NAME    = SL-14 R/B
OBJECT_ID      = 1985-069B
CENTER_NAME    = EARTH
REF_FRAME      = TEME
TIME_SYSTEM    = UTC
MEAN_ELEMENT_THEORY = SGP/SGP4

EPOCH          = 2026-02-01T07:49:50.316384
MEAN_MOTION    = 14.86388908
ECCENTRICITY   = .00176666
INCLINATION    = 82.5240
RA_OF_ASC_NODE = 59.1355
ARG_OF_PERICENTER = 316.5314
MEAN_ANOMALY   = 43.4509

EPHEMERIS_TYPE = 0
CLASSIFICATION_TYPE = U
NORAD_CAT_ID   = 15945
ELEMENT_SET_NO = 999
REV_AT_EPOCH   = 16743
BSTAR          = .57935474E-4
MEAN_MOTION_DOT = .536E-5
MEAN_MOTION_DDOT = 0

CCSDS_OMM_VERS = 2.0
CREATION_DATE  = 
ORIGINATOR     = 

OBJECT_NAME    = SL-16 R/B
OBJECT_ID      = 1985-097B
CENTER_NAME    = EARTH
REF_FRAME      = TEME
TIME_SYSTEM    = UTC
MEAN_ELEMENT_THEORY = SGP/SGP4

EPOCH          = 2026-02-01T06:57:20.634624
MEAN_MOTION    = 14.16594043
ECCENTRICITY   = .00092793
INCLINATION    = 71.0011
RA_OF_ASC_NODE = 217.1820
ARG_OF_PERICENTER = 302.5612
MEAN_ANOMALY   = 230.1164

EPHEMERIS_TYPE = 0
CLASSIFICATION_TYPE = U
NORAD_CAT_ID   = 16182
ELEMENT_SET_NO = 999
REV_AT_EPOCH   = 8207
BSTAR          = .15786602E-3
MEAN_MOTION_DOT = .267E-5
MEAN_MOTION_DDOT = 0

CCSDS_OMM_VERS = 2.0
CREATION_DATE  = 
ORIGINATOR     = 

OBJECT_NAME    = SL-14 R/B
OBJECT_ID      = 1986-006B
CENTER_NAME    = EARTH
REF_FRAME      = TEME
TIME_SYSTEM    = UTC
MEAN_ELEMENT_THEORY = SGP/SGP4

EPOCH          = 2026-01-31T23:25:57.631872
MEAN_MOTION    = 14.86759943
ECCENTRICITY   = .00775952
INCLINATION    = 82.5279
RA_OF_ASC_NODE = 294.2904
ARG_OF_PERICENTER = 35.3707
MEAN_ANOMALY   = 325.2620

EPHEMERIS_TYPE = 0
CLASSIFICATION_TYPE = U
NORAD_CAT_ID   = 16496
ELEMENT_SET_NO = 999
REV_AT_EPOCH   = 14375
BSTAR          = .88867921E-4
MEAN_MOTION_DOT = .863E-5
MEAN_MOTION_DDOT = 0

CCSDS_OMM_VERS = 2.0
CREATION_DATE  = 
ORIGINATOR     = 

OBJECT_NAME    = COSMOS 1743
OBJECT_ID      = 1986-034A
CENTER_NAME    = EARTH
REF_FRAME      = TEME
TIME_SYSTEM    = UTC
MEAN_ELEMENT_THEORY = SGP/SGP4

EPOCH          = 2026-01-31T22:46:37.400736
MEAN_MOTION    = 15.55861679
ECCENTRICITY   = .00053881
INCLINATION    = 82.5348
RA_OF_ASC_NODE = 112.3068
ARG_OF_PERICENTER = 73.8096
MEAN_ANOMALY   = 286.3751

EPHEMERIS_TYPE = 0
CLASSIFICATION_TYPE = U
NORAD_CAT_ID   = 16719
ELEMENT_SET_NO = 999
REV_AT_EPOCH   = 17453
BSTAR          = .4365131E-3
MEAN_MOTION_DOT = .30313E-3
MEAN_MOTION_DDOT = 0

